[{"OBJECT_NAME":"STARLINK-31395","OBJECT_ID":"2024-045C","EPOCH":"2026-03-09T09:49:57.565056","MEAN_MOTION":15.27550307,"ECCENTRICITY":0.00011038,"INCLINATION":43.0033,"RA_OF_ASC_NODE":94.5482,"ARG_OF_PERICENTER":271.0317,"MEAN_ANOMALY":89.0408,"EPHEMERIS_TYPE":0,"CLASSIFICATION_TYPE":"U","NORAD_CAT_ID":59180,"ELEMENT_SET_NO":999,"REV_AT_EPOCH":11311,"BSTAR":-7.4312399e-5,"MEAN_MOTION_DOT":-2.304e-5,"MEAN_MOTION_DDOT":0},{"OBJECT_NAME":"JINJUSAT-1B","OBJECT_ID":"2025-052A","EPOCH":"2026-03-09T15:55:38.242848","MEAN_MOTION":15.30194857,"ECCENTRICITY":0.00055504,"INCLINATION":97.4113,"RA_OF_ASC_NODE":325.4613,"ARG_OF_PERICENTER":82.193,"MEAN_ANOMALY":277.9941,"EPHEMERIS_TYPE":0,"CLASSIFICATION_TYPE":"U","NORAD_CAT_ID":63210,"ELEMENT_SET_NO":999,"REV_AT_EPOCH":5486,"BSTAR":0.00068430401,"MEAN_MOTION_DOT":0.00019955,"MEAN_MOTION_DDOT":0}]
